[{"OBJECT_NAME":"LEO EXPRESS 1","OBJECT_ID":"2023-174AX","EPOCH":"2026-03-09T18:25:46.135776","MEAN_MOTION":15.32756831,"ECCENTRICITY":0.00787345,"INCLINATION":97.5222,"RA_OF_ASC_NODE":152.4092,"ARG_OF_PERICENTER":115.921,"MEAN_ANOMALY":245.0174,"EPHEMERIS_TYPE":0,"CLASSIFICATION_TYPE":"U","NORAD_CAT_ID":58301,"ELEMENT_SET_NO":999,"REV_AT_EPOCH":12965,"BSTAR":0.00049741019,"MEAN_MOTION_DOT":0.00017303,"MEAN_MOTION_DDOT":0},{"OBJECT_NAME":"STARLINK-36423","OBJECT_ID":"2026-008D","EPOCH":"2026-03-09T10:23:06.144864","MEAN_MOTION":15.27585154,"ECCENTRICITY":0.00016452,"INCLINATION":42.9989,"RA_OF_ASC_NODE":206.6197,"ARG_OF_PERICENTER":267.6574,"MEAN_ANOMALY":92.4089,"EPHEMERIS_TYPE":0,"CLASSIFICATION_TYPE":"U","NORAD_CAT_ID":67448,"ELEMENT_SET_NO":999,"REV_AT_EPOCH":953,"BSTAR":0.0009336997,"MEAN_MOTION_DOT":0.00025525,"MEAN_MOTION_DDOT":0}]
